[{"OBJECT_NAME":"ONEWEB-0716","OBJECT_ID":"2023-004AP","EPOCH":"2026-03-04T09:43:23.271744","MEAN_MOTION":13.17648172,"ECCENTRICITY":0.00017679,"INCLINATION":87.9138,"RA_OF_ASC_NODE":26.6758,"ARG_OF_PERICENTER":87.1873,"MEAN_ANOMALY":272.946,"EPHEMERIS_TYPE":0,"CLASSIFICATION_TYPE":"U","NORAD_CAT_ID":55177,"ELEMENT_SET_NO":999,"REV_AT_EPOCH":15378,"BSTAR":8.4215707e-5,"MEAN_MOTION_DOT":4.6e-7,"MEAN_MOTION_DDOT":0},{"OBJECT_NAME":"ONEWEB-0717","OBJECT_ID":"2023-004AQ","EPOCH":"2026-03-04T09:19:04.469952","MEAN_MOTION":13.17649129,"ECCENTRICITY":0.00021304,"INCLINATION":87.915,"RA_OF_ASC_NODE":26.6575,"ARG_OF_PERICENTER":62.6666,"MEAN_ANOMALY":297.4682,"EPHEMERIS_TYPE":0,"CLASSIFICATION_TYPE":"U","NORAD_CAT_ID":55178,"ELEMENT_SET_NO":999,"REV_AT_EPOCH":15383,"BSTAR":-8.3879214e-5,"MEAN_MOTION_DOT":-2.0e-7,"MEAN_MOTION_DDOT":0},{"OBJECT_NAME":"ONEWEB-0719","OBJECT_ID":"2023-004AR","EPOCH":"2026-03-04T09:33:38.731680","MEAN_MOTION":13.17651163,"ECCENTRICITY":0.00016503,"INCLINATION":87.9155,"RA_OF_ASC_NODE":26.6363,"ARG_OF_PERICENTER":82.6694,"MEAN_ANOMALY":277.4625,"EPHEMERIS_TYPE":0,"CLASSIFICATION_TYPE":"U","NORAD_CAT_ID":55179,"ELEMENT_SET_NO":999,"REV_AT_EPOCH":15378,"BSTAR":-0.0001992869,"MEAN_MOTION_DOT":-6.5e-7,"MEAN_MOTION_DDOT":0},{"OBJECT_NAME":"ONEWEB-0530","OBJECT_ID":"2023-029A","EPOCH":"2026-03-04T04:00:54.036576","MEAN_MOTION":13.20772112,"ECCENTRICITY":0.00014507,"INCLINATION":87.9176,"RA_OF_ASC_NODE":295.447,"ARG_OF_PERICENTER":66.1472,"MEAN_ANOMALY":293.9813,"EPHEMERIS_TYPE":0,"CLASSIFICATION_TYPE":"U","NORAD_CAT_ID":55796,"ELEMENT_SET_NO":999,"REV_AT_EPOCH":14728,"BSTAR":0.00011275498,"MEAN_MOTION_DOT":5.9e-7,"MEAN_MOTION_DDOT":0},{"OBJECT_NAME":"ONEWEB-0534","OBJECT_ID":"2023-029B","EPOCH":"2026-03-04T14:37:15.743136","MEAN_MOTION":13.20771829,"ECCENTRICITY":0.0001526,"INCLINATION":87.9171,"RA_OF_ASC_NODE":295.3582,"ARG_OF_PERICENTER":86.8962,"MEAN_ANOMALY":273.2346,"EPHEMERIS_TYPE":0,"CLASSIFICATION_TYPE":"U","NORAD_CAT_ID":55797,"ELEMENT_SET_NO":999,"REV_AT_EPOCH":14734,"BSTAR":-1.5451e-6,"MEAN_MOTION_DOT":1.2e-7,"MEAN_MOTION_DDOT":0},{"OBJECT_NAME":"ONEWEB-0556","OBJECT_ID":"2023-029C","EPOCH":"2026-03-04T03:51:49.013280","MEAN_MOTION":13.20771553,"ECCENTRICITY":7.319e-5,"INCLINATION":87.9172,"RA_OF_ASC_NODE":295.4498,"ARG_OF_PERICENTER":101.887,"MEAN_ANOMALY":258.2345,"EPHEMERIS_TYPE":0,"CLASSIFICATION_TYPE":"U","NORAD_CAT_ID":55798,"ELEMENT_SET_NO":999,"REV_AT_EPOCH":14728,"BSTAR":-4.5810963e-5,"MEAN_MOTION_DOT":-6.0e-8,"MEAN_MOTION_DDOT":0},{"OBJECT_NAME":"ONEWEB-0562","OBJECT_ID":"2023-029D","EPOCH":"2026-03-04T03:33:37.825344","MEAN_MOTION":13.20772291,"ECCENTRICITY":0.00011013,"INCLINATION":87.9174,"RA_OF_ASC_NODE":295.4322,"ARG_OF_PERICENTER":51.0751,"MEAN_ANOMALY":309.048,"EPHEMERIS_TYPE":0,"CLASSIFICATION_TYPE":"U","NORAD_CAT_ID":55799,"ELEMENT_SET_NO":999,"REV_AT_EPOCH":14728,"BSTAR":0.0002148246,"MEAN_MOTION_DOT":1.0e-6,"MEAN_MOTION_DDOT":0},{"OBJECT_NAME":"ONEWEB-0563","OBJECT_ID":"2023-029E","EPOCH":"2026-03-04T03:24:32.281056","MEAN_MOTION":13.20772308,"ECCENTRICITY":0.00014754,"INCLINATION":87.9174,"RA_OF_ASC_NODE":295.4641,"ARG_OF_PERICENTER":91.4279,"MEAN_ANOMALY":268.7023,"EPHEMERIS_TYPE":0,"CLASSIFICATION_TYPE":"U","NORAD_CAT_ID":55800,"ELEMENT_SET_NO":999,"REV_AT_EPOCH":14727,"BSTAR":0.00015663929,"MEAN_MOTION_DOT":7.7e-7,"MEAN_MOTION_DDOT":0},{"OBJECT_NAME":"ONEWEB-0564","OBJECT_ID":"2023-029F","EPOCH":"2026-03-04T03:15:27.021888","MEAN_MOTION":13.20772357,"ECCENTRICITY":0.00014203,"INCLINATION":87.917,"RA_OF_ASC_NODE":295.4377,"ARG_OF_PERICENTER":70.1348,"MEAN_ANOMALY":289.9938,"EPHEMERIS_TYPE":0,"CLASSIFICATION_TYPE":"U","NORAD_CAT_ID":55801,"ELEMENT_SET_NO":999,"REV_AT_EPOCH":14728,"BSTAR":0.00035387962,"MEAN_MOTION_DOT":1.57e-6,"MEAN_MOTION_DDOT":0},{"OBJECT_NAME":"ONEWEB-0638","OBJECT_ID":"2023-029G","EPOCH":"2026-03-04T04:45:32.773536","MEAN_MOTION":13.14503554,"ECCENTRICITY":0.00010446,"INCLINATION":87.8986,"RA_OF_ASC_NODE":310.708,"ARG_OF_PERICENTER":75.4656,"MEAN_ANOMALY":284.659,"EPHEMERIS_TYPE":0,"CLASSIFICATION_TYPE":"U","NORAD_CAT_ID":55802,"ELEMENT_SET_NO":999,"REV_AT_EPOCH":14560,"BSTAR":0.00038604552,"MEAN_MOTION_DOT":1.56e-6,"MEAN_MOTION_DDOT":0},{"OBJECT_NAME":"ONEWEB-0639","OBJECT_ID":"2023-029H","EPOCH":"2026-03-04T06:04:27.621408","MEAN_MOTION":13.19727046,"ECCENTRICITY":0.00020807,"INCLINATION":87.9237,"RA_OF_ASC_NODE":325.8817,"ARG_OF_PERICENTER":109.9541,"MEAN_ANOMALY":250.1816,"EPHEMERIS_TYPE":0,"CLASSIFICATION_TYPE":"U","NORAD_CAT_ID":55803,"ELEMENT_SET_NO":999,"REV_AT_EPOCH":14506,"BSTAR":-0.00012807388,"MEAN_MOTION_DOT":-3.8e-7,"MEAN_MOTION_DDOT":0},{"OBJECT_NAME":"ONEWEB-0640","OBJECT_ID":"2023-029J","EPOCH":"2026-03-04T15:56:53.396160","MEAN_MOTION":13.14501294,"ECCENTRICITY":9.99e-5,"INCLINATION":87.8987,"RA_OF_ASC_NODE":310.6059,"ARG_OF_PERICENTER":101.2848,"MEAN_ANOMALY":258.8394,"EPHEMERIS_TYPE":0,"CLASSIFICATION_TYPE":"U","NORAD_CAT_ID":55804,"ELEMENT_SET_NO":999,"REV_AT_EPOCH":14568,"BSTAR":0.00052804,"MEAN_MOTION_DOT":2.09e-6,"MEAN_MOTION_DDOT":0},{"OBJECT_NAME":"ONEWEB-0641","OBJECT_ID":"2023-029K","EPOCH":"2026-03-04T05:57:38.512224","MEAN_MOTION":13.19726052,"ECCENTRICITY":0.00017564,"INCLINATION":87.9241,"RA_OF_ASC_NODE":325.8692,"ARG_OF_PERICENTER":84.4516,"MEAN_ANOMALY":275.6817,"EPHEMERIS_TYPE":0,"CLASSIFICATION_TYPE":"U","NORAD_CAT_ID":55805,"ELEMENT_SET_NO":999,"REV_AT_EPOCH":14507,"BSTAR":0.00017860724,"MEAN_MOTION_DOT":8.4e-7,"MEAN_MOTION_DDOT":0},{"OBJECT_NAME":"ONEWEB-0642","OBJECT_ID":"2023-029L","EPOCH":"2026-03-04T16:45:52.720704","MEAN_MOTION":13.19725915,"ECCENTRICITY":0.0002207,"INCLINATION":87.9234,"RA_OF_ASC_NODE":325.7949,"ARG_OF_PERICENTER":101.0005,"MEAN_ANOMALY":259.1376,"EPHEMERIS_TYPE":0,"CLASSIFICATION_TYPE":"U","NORAD_CAT_ID":55806,"ELEMENT_SET_NO":999,"REV_AT_EPOCH":14512,"BSTAR":-9.2915e-5,"MEAN_MOTION_DOT":-2.4e-7,"MEAN_MOTION_DDOT":0},{"OBJECT_NAME":"ONEWEB-0643","OBJECT_ID":"2023-029M","EPOCH":"2026-03-04T04:15:50.954112","MEAN_MOTION":13.1450229,"ECCENTRICITY":0.00021766,"INCLINATION":87.8991,"RA_OF_ASC_NODE":310.6895,"ARG_OF_PERICENTER":94.315,"MEAN_ANOMALY":265.8228,"EPHEMERIS_TYPE":0,"CLASSIFICATION_TYPE":"U","NORAD_CAT_ID":55807,"ELEMENT_SET_NO":999,"REV_AT_EPOCH":14559,"BSTAR":-0.00035440338,"MEAN_MOTION_DOT":-1.19e-6,"MEAN_MOTION_DDOT":0},{"OBJECT_NAME":"ONEWEB-0644","OBJECT_ID":"2023-029N","EPOCH":"2026-03-04T16:39:03.869856","MEAN_MOTION":13.19725444,"ECCENTRICITY":0.0001916,"INCLINATION":87.9227,"RA_OF_ASC_NODE":325.8028,"ARG_OF_PERICENTER":89.6544,"MEAN_ANOMALY":270.4809,"EPHEMERIS_TYPE":0,"CLASSIFICATION_TYPE":"U","NORAD_CAT_ID":55808,"ELEMENT_SET_NO":999,"REV_AT_EPOCH":14512,"BSTAR":-5.0046e-6,"MEAN_MOTION_DOT":1.1e-7,"MEAN_MOTION_DDOT":0},{"OBJECT_NAME":"ONEWEB-0645","OBJECT_ID":"2023-029P","EPOCH":"2026-03-04T06:15:50.046624","MEAN_MOTION":13.19724418,"ECCENTRICITY":0.00015441,"INCLINATION":87.9231,"RA_OF_ASC_NODE":325.8809,"ARG_OF_PERICENTER":96.4752,"MEAN_ANOMALY":263.6557,"EPHEMERIS_TYPE":0,"CLASSIFICATION_TYPE":"U","NORAD_CAT_ID":55809,"ELEMENT_SET_NO":999,"REV_AT_EPOCH":14506,"BSTAR":0.00010930566,"MEAN_MOTION_DOT":5.7e-7,"MEAN_MOTION_DDOT":0},{"OBJECT_NAME":"ONEWEB-0646","OBJECT_ID":"2023-029Q","EPOCH":"2026-03-04T06:40:50.745504","MEAN_MOTION":13.19727296,"ECCENTRICITY":0.00018346,"INCLINATION":87.9239,"RA_OF_ASC_NODE":325.8769,"ARG_OF_PERICENTER":87.5772,"MEAN_ANOMALY":272.5571,"EPHEMERIS_TYPE":0,"CLASSIFICATION_TYPE":"U","NORAD_CAT_ID":55810,"ELEMENT_SET_NO":999,"REV_AT_EPOCH":14505,"BSTAR":0.00031371427,"MEAN_MOTION_DOT":1.39e-6,"MEAN_MOTION_DDOT":0},{"OBJECT_NAME":"ONEWEB-0648","OBJECT_ID":"2023-029R","EPOCH":"2026-03-04T05:19:47.209152","MEAN_MOTION":13.14501687,"ECCENTRICITY":0.00017695,"INCLINATION":87.8998,"RA_OF_ASC_NODE":310.6453,"ARG_OF_PERICENTER":114.8474,"MEAN_ANOMALY":245.284,"EPHEMERIS_TYPE":0,"CLASSIFICATION_TYPE":"U","NORAD_CAT_ID":55811,"ELEMENT_SET_NO":999,"REV_AT_EPOCH":14560,"BSTAR":0.000390329,"MEAN_MOTION_DOT":1.57e-6,"MEAN_MOTION_DDOT":0},{"OBJECT_NAME":"ONEWEB-0649","OBJECT_ID":"2023-029S","EPOCH":"2026-03-04T05:28:03.597888","MEAN_MOTION":13.19725265,"ECCENTRICITY":0.0001613,"INCLINATION":87.9238,"RA_OF_ASC_NODE":325.8841,"ARG_OF_PERICENTER":90.567,"MEAN_ANOMALY":269.5647,"EPHEMERIS_TYPE":0,"CLASSIFICATION_TYPE":"U","NORAD_CAT_ID":55812,"ELEMENT_SET_NO":999,"REV_AT_EPOCH":14508,"BSTAR":0.00022705584,"MEAN_MOTION_DOT":1.04e-6,"MEAN_MOTION_DDOT":0},{"OBJECT_NAME":"ONEWEB-0650","OBJECT_ID":"2023-029T","EPOCH":"2026-03-04T05:21:14.575104","MEAN_MOTION":13.19727225,"ECCENTRICITY":0.00018883,"INCLINATION":87.9236,"RA_OF_ASC_NODE":325.8882,"ARG_OF_PERICENTER":93.932,"MEAN_ANOMALY":266.2029,"EPHEMERIS_TYPE":0,"CLASSIFICATION_TYPE":"U","NORAD_CAT_ID":55813,"ELEMENT_SET_NO":999,"REV_AT_EPOCH":14505,"BSTAR":0.0001885243,"MEAN_MOTION_DOT":8.8e-7,"MEAN_MOTION_DDOT":0},{"OBJECT_NAME":"ONEWEB-0652","OBJECT_ID":"2023-029U","EPOCH":"2026-03-04T15:50:02.760288","MEAN_MOTION":13.14501432,"ECCENTRICITY":0.0001617,"INCLINATION":87.8988,"RA_OF_ASC_NODE":310.5741,"ARG_OF_PERICENTER":74.5152,"MEAN_ANOMALY":285.6156,"EPHEMERIS_TYPE":0,"CLASSIFICATION_TYPE":"U","NORAD_CAT_ID":55814,"ELEMENT_SET_NO":999,"REV_AT_EPOCH":14563,"BSTAR":0.00044668,"MEAN_MOTION_DOT":1.78e-6,"MEAN_MOTION_DDOT":0},{"OBJECT_NAME":"ONEWEB-0653","OBJECT_ID":"2023-029V","EPOCH":"2026-03-04T04:29:32.838432","MEAN_MOTION":13.1450266,"ECCENTRICITY":0.00014455,"INCLINATION":87.8996,"RA_OF_ASC_NODE":310.6583,"ARG_OF_PERICENTER":76.8166,"MEAN_ANOMALY":283.3125,"EPHEMERIS_TYPE":0,"CLASSIFICATION_TYPE":"U","NORAD_CAT_ID":55815,"ELEMENT_SET_NO":999,"REV_AT_EPOCH":14560,"BSTAR":-9.0696474e-5,"MEAN_MOTION_DOT":-2.1e-7,"MEAN_MOTION_DDOT":0}]
